[{"OBJECT_NAME":"STARLINK-34385","OBJECT_ID":"2025-126J","EPOCH":"2026-03-09T22:10:12.260928","MEAN_MOTION":14.98334733,"ECCENTRICITY":0.00028008,"INCLINATION":70.003,"RA_OF_ASC_NODE":34.0009,"ARG_OF_PERICENTER":274.0241,"MEAN_ANOMALY":86.0598,"EPHEMERIS_TYPE":0,"CLASSIFICATION_TYPE":"U","NORAD_CAT_ID":64352,"ELEMENT_SET_NO":999,"REV_AT_EPOCH":4071,"BSTAR":0.00043045685,"MEAN_MOTION_DOT":5.047e-5,"MEAN_MOTION_DDOT":0},{"OBJECT_NAME":"FENGYUN 1C DEB","OBJECT_ID":"1999-025EA","EPOCH":"2026-03-09T21:25:08.488704","MEAN_MOTION":14.56795996,"ECCENTRICITY":0.01928778,"INCLINATION":98.8218,"RA_OF_ASC_NODE":190.418,"ARG_OF_PERICENTER":17.5828,"MEAN_ANOMALY":343.1923,"EPHEMERIS_TYPE":0,"CLASSIFICATION_TYPE":"U","NORAD_CAT_ID":29832,"ELEMENT_SET_NO":999,"REV_AT_EPOCH":1524,"BSTAR":0.00013032505,"MEAN_MOTION_DOT":6.87e-6,"MEAN_MOTION_DDOT":0}]
